{
  "type": "FeatureCollection",
  "features": [
    {
      "type": "Feature",
      "properties": {
        "norad_id": 66933,
        "name": "STARLINK-36157",
        "group": "last-30-days",
        "lat": -17.41551627360267,
        "lon": 176.2418854533485,
        "alt_km": 402.5331191477553,
        "timestamp": "2025-12-26T08:37:53.293001+00:00",
        "meta_object_name": "STARLINK-36157",
        "meta_object_id": "2025-286J",
        "meta_epoch": "2025-12-26T04:00:01.998720",
        "meta_mean_motion": 15.56904729,
        "meta_eccentricity": 0.0001622,
        "meta_inclination": 53.1591,
        "meta_ra_of_asc_node": 343.5725,
        "meta_arg_of_pericenter": 86.0882,
        "meta_mean_anomaly": 113.9724,
        "meta_ephemeris_type": 0,
        "meta_classification_type": "U",
        "meta_norad_cat_id": 66933,
        "meta_element_set_no": 999,
        "meta_rev_at_epoch": 414,
        "meta_bstar": -0.031947,
        "meta_mean_motion_dot": -0.02085147,
        "meta_mean_motion_ddot": 0,
        "tle_line1": "1 66933U 25286J   25360.16668980 -.02085147  00000+0 -31947-1 0  9993",
        "tle_line2": "2 66933  53.1591 343.5725 0001622  86.0882 113.9724 15.56904729  4149"
      },
      "geometry": {
        "type": "Point",
        "coordinates": [
          176.2418854533485,
          -17.41551627360267
        ]
      }
    },
    {
      "type": "Feature",
      "properties": {
        "norad_id": 66934,
        "name": "STARLINK-36153",
        "group": "last-30-days",
        "lat": -18.898206394323516,
        "lon": 177.50852582356782,
        "alt_km": 402.66086588454164,
        "timestamp": "2025-12-26T08:37:53.293011+00:00",
        "meta_object_name": "STARLINK-36153",
        "meta_object_id": "2025-286K",
        "meta_epoch": "2025-12-26T04:00:01.998720",
        "meta_mean_motion": 15.56893015,
        "meta_eccentricity": 0.0001624,
        "meta_inclination": 53.1593,
        "meta_ra_of_asc_node": 343.5689,
        "meta_arg_of_pericenter": 89.0198,
        "meta_mean_anomaly": 112.9585,
        "meta_ephemeris_type": 0,
        "meta_classification_type": "U",
        "meta_norad_cat_id": 66934,
        "meta_element_set_no": 999,
        "meta_rev_at_epoch": 414,
        "meta_bstar": -0.031621,
        "meta_mean_motion_dot": -0.02065347,
        "meta_mean_motion_ddot": 0,
        "tle_line1": "1 66934U 25286K   25360.16668980 -.02065347  00000+0 -31621-1 0  9993",
        "tle_line2": "2 66934  53.1593 343.5689 0001624  89.0198 112.9585 15.56893015  4145"
      },
      "geometry": {
        "type": "Point",
        "coordinates": [
          177.50852582356782,
          -18.898206394323516
        ]
      }
    },
    {
      "type": "Feature",
      "properties": {
        "norad_id": 66935,
        "name": "STARLINK-36127",
        "group": "last-30-days",
        "lat": -20.374470877099988,
        "lon": 178.7986888716622,
        "alt_km": 402.8635570806073,
        "timestamp": "2025-12-26T08:37:53.293021+00:00",
        "meta_object_name": "STARLINK-36127",
        "meta_object_id": "2025-286L",
        "meta_epoch": "2025-12-26T04:00:01.998720",
        "meta_mean_motion": 15.56896966,
        "meta_eccentricity": 0.0001537,
        "meta_inclination": 53.1593,
        "meta_ra_of_asc_node": 343.564,
        "meta_arg_of_pericenter": 84.4223,
        "meta_mean_anomaly": 119.4722,
        "meta_ephemeris_type": 0,
        "meta_classification_type": "U",
        "meta_norad_cat_id": 66935,
        "meta_element_set_no": 999,
        "meta_rev_at_epoch": 414,
        "meta_bstar": -0.031718,
        "meta_mean_motion_dot": -0.02071195,
        "meta_mean_motion_ddot": 0,
        "tle_line1": "1 66935U 25286L   25360.16668980 -.02071195  00000+0 -31718-1 0  9999",
        "tle_line2": "2 66935  53.1593 343.5640 0001537  84.4223 119.4722 15.56896966  4147"
      },
      "geometry": {
        "type": "Point",
        "coordinates": [
          178.7986888716622,
          -20.374470877099988
        ]
      }
    },
    {
      "type": "Feature",
      "properties": {
        "norad_id": 66936,
        "name": "STARLINK-36160",
        "group": "last-30-days",
        "lat": -21.840268355947345,
        "lon": -179.8851270617101,
        "alt_km": 402.99617337737163,
        "timestamp": "2025-12-26T08:37:53.293033+00:00",
        "meta_object_name": "STARLINK-36160",
        "meta_object_id": "2025-286M",
        "meta_epoch": "2025-12-26T04:00:01.998720",
        "meta_mean_motion": 15.56894564,
        "meta_eccentricity": 0.0001578,
        "meta_inclination": 53.1594,
        "meta_ra_of_asc_node": 343.5609,
        "meta_arg_of_pericenter": 86.8179,
        "meta_mean_anomaly": 118.9923,
        "meta_ephemeris_type": 0,
        "meta_classification_type": "U",
        "meta_norad_cat_id": 66936,
        "meta_element_set_no": 999,
        "meta_rev_at_epoch": 414,
        "meta_bstar": -0.031635,
        "meta_mean_motion_dot": -0.020662,
        "meta_mean_motion_ddot": 0,
        "tle_line1": "1 66936U 25286M   25360.16668980 -.02066200  00000+0 -31635-1 0  9999",
        "tle_line2": "2 66936  53.1594 343.5609 0001578  86.8179 118.9923 15.56894564  4144"
      },
      "geometry": {
        "type": "Point",
        "coordinates": [
          -179.8851270617101,
          -21.840268355947345
        ]
      }
    },
    {
      "type": "Feature",
      "properties": {
        "norad_id": 66937,
        "name": "STARLINK-36165",
        "group": "last-30-days",
        "lat": -23.295509637772067,
        "lon": -178.54297475407998,
        "alt_km": 403.05644938853493,
        "timestamp": "2025-12-26T08:37:53.293048+00:00",
        "meta_object_name": "STARLINK-36165",
        "meta_object_id": "2025-286N",
        "meta_epoch": "2025-12-26T04:00:01.998720",
        "meta_mean_motion": 15.56893424,
        "meta_eccentricity": 0.0001568,
        "meta_inclination": 53.1595,
        "meta_ra_of_asc_node": 343.5564,
        "meta_arg_of_pericenter": 92.296,
        "meta_mean_anomaly": 115.4297,
        "meta_ephemeris_type": 0,
        "meta_classification_type": "U",
        "meta_norad_cat_id": 66937,
        "meta_element_set_no": 999,
        "meta_rev_at_epoch": 414,
        "meta_bstar": -0.03158,
        "meta_mean_motion_dot": -0.02062907,
        "meta_mean_motion_ddot": 0,
        "tle_line1": "1 66937U 25286N   25360.16668980 -.02062907  00000+0 -31580-1 0  9999",
        "tle_line2": "2 66937  53.1595 343.5564 0001568  92.2960 115.4297 15.56893424  4144"
      },
      "geometry": {
        "type": "Point",
        "coordinates": [
          -178.54297475407998,
          -23.295509637772067
        ]
      }
    },
    {
      "type": "Feature",
      "properties": {
        "norad_id": 66938,
        "name": "STARLINK-36155",
        "group": "last-30-days",
        "lat": -24.740246575824106,
        "lon": -177.17015962970586,
        "alt_km": 403.2859875901904,
        "timestamp": "2025-12-26T08:37:53.293058+00:00",
        "meta_object_name": "STARLINK-36155",
        "meta_object_id": "2025-286P",
        "meta_epoch": "2025-12-26T04:00:01.998720",
        "meta_mean_motion": 15.56890286,
        "meta_eccentricity": 0.0001526,
        "meta_inclination": 53.1596,
        "meta_ra_of_asc_node": 343.5517,
        "meta_arg_of_pericenter": 85.85,
        "meta_mean_anomaly": 123.7966,
        "meta_ephemeris_type": 0,
        "meta_classification_type": "U",
        "meta_norad_cat_id": 66938,
        "meta_element_set_no": 999,
        "meta_rev_at_epoch": 414,
        "meta_bstar": -0.031548,
        "meta_mean_motion_dot": -0.02060787,
        "meta_mean_motion_ddot": 0,
        "tle_line1": "1 66938U 25286P   25360.16668980 -.02060787  00000+0 -31548-1 0  9998",
        "tle_line2": "2 66938  53.1596 343.5517 0001526  85.8500 123.7966 15.56890286  4144"
      },
      "geometry": {
        "type": "Point",
        "coordinates": [
          -177.17015962970586,
          -24.740246575824106
        ]
      }
    },
    {
      "type": "Feature",
      "properties": {
        "norad_id": 66939,
        "name": "STARLINK-36154",
        "group": "last-30-days",
        "lat": -27.589262070421718,
        "lon": -174.32367663840722,
        "alt_km": 403.61837709820793,
        "timestamp": "2025-12-26T08:37:53.293068+00:00",
        "meta_object_name": "STARLINK-36154",
        "meta_object_id": "2025-286Q",
        "meta_epoch": "2025-12-26T04:00:01.998720",
        "meta_mean_motion": 15.56869003,
        "meta_eccentricity": 0.0001695,
        "meta_inclination": 53.1593,
        "meta_ra_of_asc_node": 343.544,
        "meta_arg_of_pericenter": 87.723,
        "meta_mean_anomaly": 125.7672,
        "meta_ephemeris_type": 0,
        "meta_classification_type": "U",
        "meta_norad_cat_id": 66939,
        "meta_element_set_no": 999,
        "meta_rev_at_epoch": 414,
        "meta_bstar": -0.031103,
        "meta_mean_motion_dot": -0.02033482,
        "meta_mean_motion_ddot": 0,
        "tle_line1": "1 66939U 25286Q   25360.16668980 -.02033482  00000+0 -31103-1 0  9998",
        "tle_line2": "2 66939  53.1593 343.5440 0001695  87.7230 125.7672 15.56869003  4144"
      },
      "geometry": {
        "type": "Point",
        "coordinates": [
          -174.32367663840722,
          -27.589262070421718
        ]
      }
    }
  ]
}